GPS BIIR-2  (PRN 13)    
1 24876U 97035A   22338.37826227  .00000091  00000+0  00000+0 0  9994
2 24876  55.5358 149.0422 0065204  53.3567 307.2601  2.00563638185868
GPS BIIR-4  (PRN 20)    
1 26360U 00025A   22339.33884525 -.00000084  00000+0  00000+0 0  9992
2 26360  54.2008  71.8188 0047367 190.4911 234.4075  2.00560451165407
GPS BIIR-6  (PRN 22)    
1 26605U 00071A   22339.58168418  .00000071  00000+0  00000+0 0  9993
2 26605  55.1233 145.9150 0138063 254.6397 108.7301  2.00553127161656
GPS BIIR-8  (PRN 16)    
1 27663U 03005A   22339.51798111 -.00000048  00000+0  00000+0 0  9995
2 27663  55.4022 266.2652 0129580  41.7954 127.9744  2.00554514145446
GPS BIIR-9  (PRN 21)    
1 27704U 03010A   22339.50590642 -.00000097  00000+0  00000+0 0  9999
2 27704  55.0746  16.3885 0247970 310.4119  67.3207  2.00563645144249
GPS BIIR-11 (PRN 19)    
1 28190U 04009A   22339.32043905 -.00000085  00000+0  00000+0 0  9990
2 28190  55.8949 327.2921 0088243 128.1653  53.4485  2.00556396137072
GPS BIIR-13 (PRN 02)    
1 28474U 04045A   22339.50756413 -.00000096  00000+0  00000+0 0  9992
2 28474  55.3996  16.5950 0202774 282.2181 246.9692  2.00561517132568
GPS BIIRM-1 (PRN 17)    
1 28874U 05038A   22339.27827220 -.00000084  00000+0  00000+0 0  9995
2 28874  55.9546 324.7344 0140823 276.8100 263.8737  2.00564365125964
GPS BIIRM-2 (PRN 31)    
1 29486U 06042A   22339.34959196  .00000079  00000+0  00000+0 0  9990
2 29486  54.6980 202.4848 0106419  26.0674 120.8350  2.00569184118528
GPS BIIRM-3 (PRN 12)    
1 29601U 06052A   22339.09584132 -.00000050  00000+0  00000+0 0  9996
2 29601  55.4143 265.2274 0084704  75.1822 285.7641  2.00560345117533
GPS BIIRM-4 (PRN 15)    
1 32260U 07047A   22339.39856386  .00000045  00000+0  00000+0 0  9995
2 32260  53.3658 133.4569 0145389  66.3837 295.1221  2.00566013110949
GPS BIIRM-5 (PRN 29)    
1 32384U 07062A   22339.46084417 -.00000085  00000+0  00000+0 0  9990
2 32384  56.0787 325.5112 0019701 146.7688  25.8169  2.00571140109643
GPS BIIRM-6 (PRN 07)    
1 32711U 08012A   22338.81623752  .00000077  00000+0  00000+0 0  9999
2 32711  54.4609 201.4020 0166597 232.3887 126.1759  2.00570127107878
GPS BIIRM-8 (PRN 05)    
1 35752U 09043A   22339.36111510 -.00000074  00000+0  00000+0 0  9995
2 35752  55.2072  78.6566 0056545  64.4932 341.5774  2.00575264 97497
GPS BIIF-1  (PRN 25)    
1 36585U 10022A   22339.36806272 -.00000040  00000+0  00000+0 0  9998
2 36585  54.7028 260.6172 0107084  57.0653 115.9859  2.00574241 91727
GPS BIIF-2  (PRN 01)    
1 37753U 11036A   22339.59657854 -.00000095  00000+0  00000+0 0  9997
2 37753  56.6719  22.0497 0118769  53.1606   6.0566  2.00566370 83416
GPS BIIF-3  (PRN 24)    
1 38833U 12053A   22338.00300773  .00000078  00000+0  00000+0 0  9997
2 38833  53.5183 196.4109 0133349  49.0093 312.2237  2.00563787 74436
GPS BIIF-4  (PRN 27)    
1 39166U 13023A   22339.35695175 -.00000085  00000+0  00000+0 0  9996
2 39166  55.5763 321.0373 0107409  38.1552 322.5965  2.00565221 70015
GPS BIIF-5  (PRN 30)    
1 39533U 14008A   22339.36016579  .00000078  00000+0  00000+0 0  9995
2 39533  53.6091 201.8805 0060601 209.0502 150.7018  2.00563114 63816
GPS BIIF-6  (PRN 06)    
1 39741U 14026A   22339.14009205 -.00000096  00000+0  00000+0 0  9991
2 39741  56.6303  21.5925 0029049 304.8957  54.8888  2.00576534 62666
GPS BIIF-7  (PRN 09)    
1 40105U 14045A   22339.22889684  .00000063  00000+0  00000+0 0  9997
2 40105  54.7333 139.9840 0024351 112.9750 247.2805  2.00558706 60200
GPS BIIF-8  (PRN 03)    
1 40294U 14068A   22339.09787335 -.00000069  00000+0  00000+0 0  9993
2 40294  55.9505  81.2040 0042269  58.4461 301.9510  2.00553245 59331
GPS BIIF-9  (PRN 26)    
1 40534U 15013A   22339.23775310 -.00000037  00000+0  00000+0 0  9992
2 40534  53.6024 257.6180 0074819  21.7583 338.5812  2.00571479 55951
GPS BIIF-10 (PRN 08)    
1 40730U 15033A   22339.39587419 -.00000086  00000+0  00000+0 0  9994
2 40730  55.0706 319.7824 0078792   8.2032 351.9182  2.00569344 54125
GPS BIIF-11 (PRN 10)    
1 41019U 15062A   22339.44808266 -.00000070  00000+0  00000+0 0  9992
2 41019  55.9376  81.0361 0084074 218.8020 140.5796  2.00562412 51960
GPS BIIF-12 (PRN 32)    
1 41328U 16007A   22339.53501490  .00000061  00000+0  00000+0 0  9993
2 41328  54.9461 140.6844 0064620 229.8778 129.5524  2.00562735 49974
GPS BIII-1  (PRN 04)    
1 43873U 18109A   22339.00303726  .00000073  00000+0  00000+0 0  9992
2 43873  55.1243 143.1613 0022202 187.5587  38.8678  2.00556680 29198
GPS BIII-2  (PRN 18)    
1 44506U 19056A   22339.49007066 -.00000097  00000+0  00000+0 0  9996
2 44506  55.7472  22.2549 0029795 185.4769 293.1186  2.00559727 24202
GPS BIII-3  (PRN 23)    
1 45854U 20041A   22339.41593595 -.00000073  00000+0  00000+0 0  9992
2 45854  55.6573  79.5279 0029052 182.1224 182.9231  2.00567889 18174
GPS BIII-4  (PRN 14)    
1 46826U 20078A   22339.69422294 -.00000041  00000+0  00000+0 0  9994
2 46826  54.4605 263.1443 0024737 190.2579 352.1871  2.00565131 15636
GPS BIII-5  (PRN 11)    
1 48859U 21054A   22338.22043184 -.00000100  00000+0  00000+0 0  9998
2 48859  55.2569  24.2219 0009088 212.3631 170.7000  2.00563704 10868
